[
    {
        "Altitude(m)": 617710.6317716565,
        "Argument of Periapsis(deg)": 0.0,
        "Eccentricity": 0.0,
        "Inclination(deg)": 60.0,
        "Latitude(deg)": -41.10263878429374,
        "Longitude(deg)": 124.96661676323976,
        "Mean Anomaly(deg)": -49.09089999999994,
        "RAAN(deg)": 255.0,
        "Satellite Name": "Test1 1141",
        "Satellite Number": 1141,
        "Semi-Major Axis(m)": 6980739.136638005,
        "Time(s)": 0
    },
    {
        "Altitude(m)": 617517.9303327745,
        "Argument of Periapsis(deg)": 0.00010418945913296404,
        "Eccentricity": 0.0,
        "Inclination(deg)": 60.0,
        "Latitude(deg)": -40.6368458701337,
        "Longitude(deg)": 125.46341042895428,
        "Mean Anomaly(deg)": -48.470793854538094,
        "RAAN(deg)": 254.99957995086027,
        "Satellite Name": "Test1 1141",
        "Satellite Number": 1141,
        "Semi-Major Axis(m)": 6980739.136638005,
        "Time(s)": 10
    },
    {
        "Altitude(m)": 617324.2517934231,
        "Argument of Periapsis(deg)": 0.0002083789182659281,
        "Eccentricity": 0.0,
        "Inclination(deg)": 60.0,
        "Latitude(deg)": -40.16852763418365,
        "Longitude(deg)": 125.95277625131382,
        "Mean Anomaly(deg)": -47.85068770907634,
        "RAAN(deg)": 254.9991599017205,
        "Satellite Name": "Test1 1141",
        "Satellite Number": 1141,
        "Semi-Major Axis(m)": 6980739.136638005,
        "Time(s)": 20
    },
    {
        "Altitude(m)": 617129.6701343746,
        "Argument of Periapsis(deg)": 0.00031256837739889213,
        "Eccentricity": 0.0,
        "Inclination(deg)": 60.0,
        "Latitude(deg)": -39.69775720822049,
        "Longitude(deg)": 126.43489868339343,
        "Mean Anomaly(deg)": -47.230581563614436,
        "RAAN(deg)": 254.9987398525808,
        "Satellite Name": "Test1 1141",
        "Satellite Number": 1141,
        "Semi-Major Axis(m)": 6980739.136638005,
        "Time(s)": 30
    },
    {
        "Altitude(m)": 616934.2595851088,
        "Argument of Periapsis(deg)": 0.0004167578365318562,
        "Eccentricity": 0.0,
        "Inclination(deg)": 60.0,
        "Latitude(deg)": -39.2246055013619,
        "Longitude(deg)": 126.90995920010012,
        "Mean Anomaly(deg)": -46.61047541815268,
        "RAAN(deg)": 254.99831980344106,
        "Satellite Name": "Test1 1141",
        "Satellite Number": 1141,
        "Semi-Major Axis(m)": 6980739.136638005,
        "Time(s)": 40
    },
    {
        "Altitude(m)": 616738.0945913731,
        "Argument of Periapsis(deg)": 0.0005209472956648203,
        "Eccentricity": 0.0,
        "Inclination(deg)": 60.0,
        "Latitude(deg)": -38.74914127246003,
        "Longitude(deg)": 127.37813527497926,
        "Mean Anomaly(deg)": -45.990369272690835,
        "RAAN(deg)": 254.9978997543013,
        "Satellite Name": "Test1 1141",
        "Satellite Number": 1141,
        "Semi-Major Axis(m)": 6980739.136638005,
        "Time(s)": 50
    },
    {
        "Altitude(m)": 616541.2497825829,
        "Argument of Periapsis(deg)": 0.0006251367547977843,
        "Eccentricity": 0.0,
        "Inclination(deg)": 60.0,
        "Latitude(deg)": -38.271431201013364,
        "Longitude(deg)": 127.83960088077163,
        "Mean Anomaly(deg)": -45.37026312722898,
        "RAAN(deg)": 254.99747970516154,
        "Satellite Name": "Test1 1141",
        "Satellite Number": 1141,
        "Semi-Major Axis(m)": 6980739.136638005,
        "Time(s)": 60
    },
    {
        "Altitude(m)": 616343.7999391364,
        "Argument of Periapsis(deg)": 0.0007293262139307483,
        "Eccentricity": 0.0,
        "Inclination(deg)": 60.0,
        "Latitude(deg)": -37.79153995652355,
        "Longitude(deg)": 128.29452699972737,
        "Mean Anomaly(deg)": -44.75015698176718,
        "RAAN(deg)": 254.99705965602183,
        "Satellite Name": "Test1 1141",
        "Satellite Number": 1141,
        "Semi-Major Axis(m)": 6980739.136638005,
        "Time(s)": 70
    },
    {
        "Altitude(m)": 616145.8199596418,
        "Argument of Periapsis(deg)": 0.0008335156730637124,
        "Eccentricity": 0.0,
        "Inclination(deg)": 60.0,
        "Latitude(deg)": -37.309530266241254,
        "Longitude(deg)": 128.74308062976274,
        "Mean Anomaly(deg)": -44.13005083630533,
        "RAAN(deg)": 254.9966396068821,
        "Satellite Name": "Test1 1141",
        "Satellite Number": 1141,
        "Semi-Major Axis(m)": 6980739.136638005,
        "Time(s)": 80
    },
    {
        "Altitude(m)": 615947.3848280545,
        "Argument of Periapsis(deg)": 0.0009377051321966765,
        "Eccentricity": 0.0,
        "Inclination(deg)": 60.0,
        "Latitude(deg)": -36.825462981261985,
        "Longitude(deg)": 129.18542531124433,
        "Mean Anomaly(deg)": -43.50994469084347,
        "RAAN(deg)": 254.99621955774234,
        "Satellite Name": "Test1 1141",
        "Satellite Number": 1141,
        "Semi-Major Axis(m)": 6980739.136638005,
        "Time(s)": 90
    },
    {
        "Altitude(m)": 615748.569580766,
        "Argument of Periapsis(deg)": 0.0010418945913296407,
        "Eccentricity": 0.0,
        "Inclination(deg)": 60.0,
        "Latitude(deg)": -36.33939714094057,
        "Longitude(deg)": 129.62172166065122,
        "Mean Anomaly(deg)": -42.88983854538162,
        "RAAN(deg)": 254.99579950860257,
        "Satellite Name": "Test1 1141",
        "Satellite Number": 1141,
        "Semi-Major Axis(m)": 6980739.136638005,
        "Time(s)": 100
    },
    {
        "Altitude(m)": 615549.4492736602,
        "Argument of Periapsis(deg)": 0.0011460840504626045,
        "Eccentricity": 0.0,
        "Inclination(deg)": 60.0,
        "Latitude(deg)": -35.85139003560269,
        "Longitude(deg)": 130.0521263974343,
        "Mean Anomaly(deg)": -42.26973239991982,
        "RAAN(deg)": 254.99537945946287,
        "Satellite Name": "Test1 1141",
        "Satellite Number": 1141,
        "Semi-Major Axis(m)": 6980739.136638005,
        "Time(s)": 110
    },
    {
        "Altitude(m)": 615350.0989491123,
        "Argument of Periapsis(deg)": 0.0012502735095955685,
        "Eccentricity": 0.0,
        "Inclination(deg)": 60.0,
        "Latitude(deg)": -35.36149726754682,
        "Longitude(deg)": 130.4767928890776,
        "Mean Anomaly(deg)": -41.649626254457964,
        "RAAN(deg)": 254.99495941032313,
        "Satellite Name": "Test1 1141",
        "Satellite Number": 1141,
        "Semi-Major Axis(m)": 6980739.136638005,
        "Time(s)": 120
    },
    {
        "Altitude(m)": 615150.5936029904,
        "Argument of Periapsis(deg)": 0.0013544629687285324,
        "Eccentricity": 0.0,
        "Inclination(deg)": 60.0,
        "Latitude(deg)": -34.86977281033241,
        "Longitude(deg)": 130.89587170081475,
        "Mean Anomaly(deg)": -41.02952010899611,
        "RAAN(deg)": 254.99453936118337,
        "Satellite Name": "Test1 1141",
        "Satellite Number": 1141,
        "Semi-Major Axis(m)": 6980739.136638005,
        "Time(s)": 130
    },
    {
        "Altitude(m)": 614951.0081516515,
        "Argument of Periapsis(deg)": 0.0014586524278614966,
        "Eccentricity": 0.0,
        "Inclination(deg)": 60.0,
        "Latitude(deg)": -34.376269066358056,
        "Longitude(deg)": 131.30950963651222,
        "Mean Anomaly(deg)": -40.409413963534256,
        "RAAN(deg)": 254.9941193120436,
        "Satellite Name": "Test1 1141",
        "Satellite Number": 1141,
        "Semi-Major Axis(m)": 6980739.136638005,
        "Time(s)": 140
    },
    {
        "Altitude(m)": 614751.4173989646,
        "Argument of Periapsis(deg)": 0.0015628418869944607,
        "Eccentricity": 0.0,
        "Inclination(deg)": 60.0,
        "Latitude(deg)": -33.881036922743256,
        "Longitude(deg)": 131.71785029590123,
        "Mean Anomaly(deg)": -39.78930781807246,
        "RAAN(deg)": 254.9936992629039,
        "Satellite Name": "Test1 1141",
        "Satellite Number": 1141,
        "Semi-Major Axis(m)": 6980739.136638005,
        "Time(s)": 150
    },
    {
        "Altitude(m)": 614551.8960033511,
        "Argument of Periapsis(deg)": 0.0016670313461274247,
        "Eccentricity": 0.0,
        "Inclination(deg)": 60.0,
        "Latitude(deg)": -33.384125805529145,
        "Longitude(deg)": 132.12103463477732,
        "Mean Anomaly(deg)": -39.1692016726106,
        "RAAN(deg)": 254.99327921376417,
        "Satellite Name": "Test1 1141",
        "Satellite Number": 1141,
        "Semi-Major Axis(m)": 6980739.136638005,
        "Time(s)": 160
    },
    {
        "Altitude(m)": 614352.5184448751,
        "Argument of Periapsis(deg)": 0.0017712208052603888,
        "Eccentricity": 0.0,
        "Inclination(deg)": 60.0,
        "Latitude(deg)": -32.88558373221777,
        "Longitude(deg)": 132.51920001483234,
        "Mean Anomaly(deg)": -38.54909552714885,
        "RAAN(deg)": 254.9928591646244,
        "Satellite Name": "Test1 1141",
        "Satellite Number": 1141,
        "Semi-Major Axis(m)": 6980739.136638005,
        "Time(s)": 170
    },
    {
        "Altitude(m)": 614153.3589924058,
        "Argument of Periapsis(deg)": 0.001875410264393353,
        "Eccentricity": 0.0,
        "Inclination(deg)": 60.0,
        "Latitude(deg)": -32.38545736267699,
        "Longitude(deg)": 132.91248076844366,
        "Mean Anomaly(deg)": -37.928989381687,
        "RAAN(deg)": 254.99243911548464,
        "Satellite Name": "Test1 1141",
        "Satellite Number": 1141,
        "Semi-Major Axis(m)": 6980739.136638005,
        "Time(s)": 180
    },
    {
        "Altitude(m)": 613954.4916708445,
        "Argument of Periapsis(deg)": 0.0019795997235263173,
        "Eccentricity": 0.0,
        "Inclination(deg)": 60.0,
        "Latitude(deg)": -31.883792048439417,
        "Longitude(deg)": 133.30100876517022,
        "Mean Anomaly(deg)": -37.30888323622519,
        "RAAN(deg)": 254.99201906634494,
        "Satellite Name": "Test1 1141",
        "Satellite Number": 1141,
        "Semi-Major Axis(m)": 6980739.136638005,
        "Time(s)": 190
    }
]